{
  "type": "FeatureCollection",
  "features": [
    {
      "type": "Feature",
      "properties": {
        "norad_id": 60182,
        "name": "ALOS-4 (DAICHI-4)",
        "group": "resource",
        "lat": -76.29679280390657,
        "lon": 125.48848460127488,
        "alt_km": 639.2692842826982,
        "timestamp": "2025-12-21T22:41:41.105562+00:00",
        "meta_object_name": "ALOS-4 (DAICHI-4)",
        "meta_object_id": "2024-123A",
        "meta_epoch": "2025-12-20T19:27:23.067360",
        "meta_mean_motion": 14.79476697,
        "meta_eccentricity": 0.00013881,
        "meta_inclination": 97.9224,
        "meta_ra_of_asc_node": 89.5428,
        "meta_arg_of_pericenter": 101.339,
        "meta_mean_anomaly": 258.7977,
        "meta_ephemeris_type": 0,
        "meta_classification_type": "U",
        "meta_norad_cat_id": 60182,
        "meta_element_set_no": 999,
        "meta_rev_at_epoch": 7950,
        "meta_bstar": 0.00018374076,
        "meta_mean_motion_dot": 1.321e-05,
        "meta_mean_motion_ddot": 0,
        "tle_line1": "1 60182U 24123A   25354.81068365  .00001321  00000+0  18374-3 0  9997",
        "tle_line2": "2 60182  97.9224  89.5428 0001388 101.3390 258.7977 14.79476697 79501"
      },
      "geometry": {
        "type": "Point",
        "coordinates": [
          125.48848460127488,
          -76.29679280390657
        ]
      }
    },
    {
      "type": "Feature",
      "properties": {
        "norad_id": 60452,
        "name": "LEGION 3",
        "group": "resource",
        "lat": 14.863342785992417,
        "lon": 65.37772964857704,
        "alt_km": 516.1862178313195,
        "timestamp": "2025-12-21T22:41:41.105573+00:00",
        "meta_object_name": "LEGION 3",
        "meta_object_id": "2024-146A",
        "meta_epoch": "2025-12-21T14:05:18.632544",
        "meta_mean_motion": 15.15845382,
        "meta_eccentricity": 0.00156838,
        "meta_inclination": 45.0015,
        "meta_ra_of_asc_node": 262.7018,
        "meta_arg_of_pericenter": 246.2198,
        "meta_mean_anomaly": 113.7036,
        "meta_ephemeris_type": 0,
        "meta_classification_type": "U",
        "meta_norad_cat_id": 60452,
        "meta_element_set_no": 999,
        "meta_rev_at_epoch": 7507,
        "meta_bstar": 0.00019851461,
        "meta_mean_motion_dot": 3.606e-05,
        "meta_mean_motion_ddot": 0,
        "tle_line1": "1 60452U 24146A   25355.58702121  .00003606  00000+0  19851-3 0  9991",
        "tle_line2": "2 60452  45.0015 262.7018 0015683 246.2198 113.7036 15.15845382 75077"
      },
      "geometry": {
        "type": "Point",
        "coordinates": [
          65.37772964857704,
          14.863342785992417
        ]
      }
    },
    {
      "type": "Feature",
      "properties": {
        "norad_id": 60453,
        "name": "LEGION 4",
        "group": "resource",
        "lat": 15.565886933930113,
        "lon": 156.39203167887047,
        "alt_km": 521.4089355638926,
        "timestamp": "2025-12-21T22:41:41.105583+00:00",
        "meta_object_name": "LEGION 4",
        "meta_object_id": "2024-146B",
        "meta_epoch": "2025-12-21T10:55:54.688512",
        "meta_mean_motion": 15.15907588,
        "meta_eccentricity": 0.00085928,
        "meta_inclination": 45.0392,
        "meta_ra_of_asc_node": 355.1829,
        "meta_arg_of_pericenter": 358.3798,
        "meta_mean_anomaly": 1.7052,
        "meta_ephemeris_type": 0,
        "meta_classification_type": "U",
        "meta_norad_cat_id": 60453,
        "meta_element_set_no": 999,
        "meta_rev_at_epoch": 7390,
        "meta_bstar": 0.0002295529,
        "meta_mean_motion_dot": 4.212e-05,
        "meta_mean_motion_ddot": 0,
        "tle_line1": "1 60453U 24146B   25355.45549408  .00004212  00000+0  22955-3 0  9998",
        "tle_line2": "2 60453  45.0392 355.1829 0008592 358.3798   1.7052 15.15907588 73906"
      },
      "geometry": {
        "type": "Point",
        "coordinates": [
          156.39203167887047,
          15.565886933930113
        ]
      }
    },
    {
      "type": "Feature",
      "properties": {
        "norad_id": 60989,
        "name": "SENTINEL-2C",
        "group": "resource",
        "lat": -54.596525017318264,
        "lon": -123.95007021332346,
        "alt_km": 796.654918612825,
        "timestamp": "2025-12-21T22:41:41.105594+00:00",
        "meta_object_name": "SENTINEL-2C",
        "meta_object_id": "2024-157A",
        "meta_epoch": "2025-12-21T11:31:40.274400",
        "meta_mean_motion": 14.30820836,
        "meta_eccentricity": 0.00011968,
        "meta_inclination": 98.5672,
        "meta_ra_of_asc_node": 67.8366,
        "meta_arg_of_pericenter": 95.324,
        "meta_mean_anomaly": 264.8079,
        "meta_ephemeris_type": 0,
        "meta_classification_type": "U",
        "meta_norad_cat_id": 60989,
        "meta_element_set_no": 999,
        "meta_rev_at_epoch": 6757,
        "meta_bstar": 6.4988239e-05,
        "meta_mean_motion_dot": 1.27e-06,
        "meta_mean_motion_ddot": 0,
        "tle_line1": "1 60989U 24157A   25355.48032725  .00000127  00000+0  64988-4 0  9990",
        "tle_line2": "2 60989  98.5672  67.8366 0001196  95.3240 264.8079 14.30820836 67573"
      },
      "geometry": {
        "type": "Point",
        "coordinates": [
          -123.95007021332346,
          -54.596525017318264
        ]
      }
    },
    {
      "type": "Feature",
      "properties": {
        "norad_id": 61735,
        "name": "IONOSFERA-M 1",
        "group": "resource",
        "lat": -52.88408113266757,
        "lon": 33.99375330684637,
        "alt_km": 823.3915122473336,
        "timestamp": "2025-12-21T22:41:41.105604+00:00",
        "meta_object_name": "IONOSFERA-M 1",
        "meta_object_id": "2024-199A",
        "meta_epoch": "2025-12-21T14:50:53.060352",
        "meta_mean_motion": 14.2271589,
        "meta_eccentricity": 5.253e-05,
        "meta_inclination": 98.7398,
        "meta_ra_of_asc_node": 225.3985,
        "meta_arg_of_pericenter": 9.6697,
        "meta_mean_anomaly": 350.4491,
        "meta_ephemeris_type": 0,
        "meta_classification_type": "U",
        "meta_norad_cat_id": 61735,
        "meta_element_set_no": 999,
        "meta_rev_at_epoch": 10245,
        "meta_bstar": 4.192185e-05,
        "meta_mean_motion_dot": 5e-07,
        "meta_mean_motion_ddot": 0,
        "tle_line1": "1 61735U 24199A   25355.61866968  .00000050  00000+0  41922-4 0  9993",
        "tle_line2": "2 61735  98.7398 225.3985 0000525   9.6697 350.4491 14.22715890102458"
      },
      "geometry": {
        "type": "Point",
        "coordinates": [
          33.99375330684637,
          -52.88408113266757
        ]
      }
    },
    {
      "type": "Feature",
      "properties": {
        "norad_id": 61736,
        "name": "IONOSFERA-M 2",
        "group": "resource",
        "lat": 55.38592303609425,
        "lon": -147.24232045264054,
        "alt_km": 809.8933718423814,
        "timestamp": "2025-12-21T22:41:41.105614+00:00",
        "meta_object_name": "IONOSFERA-M 2",
        "meta_object_id": "2024-199B",
        "meta_epoch": "2025-12-21T15:40:45.419808",
        "meta_mean_motion": 14.22718061,
        "meta_eccentricity": 0.00018164,
        "meta_inclination": 98.7396,
        "meta_ra_of_asc_node": 225.3453,
        "meta_arg_of_pericenter": 99.2222,
        "meta_mean_anomaly": 260.9161,
        "meta_ephemeris_type": 0,
        "meta_classification_type": "U",
        "meta_norad_cat_id": 61736,
        "meta_element_set_no": 999,
        "meta_rev_at_epoch": 10558,
        "meta_bstar": 4.3151174e-05,
        "meta_mean_motion_dot": 5.2e-07,
        "meta_mean_motion_ddot": 0,
        "tle_line1": "1 61736U 24199B   25355.65330347  .00000052  00000+0  43151-4 0  9993",
        "tle_line2": "2 61736  98.7396 225.3453 0001816  99.2222 260.9161 14.22718061105589"
      },
      "geometry": {
        "type": "Point",
        "coordinates": [
          -147.24232045264054,
          55.38592303609425
        ]
      }
    },
    {
      "type": "Feature",
      "properties": {
        "norad_id": 63772,
        "name": "BIOMASS",
        "group": "resource",
        "lat": -67.13508118434366,
        "lon": -159.519662701362,
        "alt_km": 676.9182151060968,
        "timestamp": "2025-12-21T22:41:41.105625+00:00",
        "meta_object_name": "BIOMASS",
        "meta_object_id": "2025-090A",
        "meta_epoch": "2025-12-21T06:38:34.325088",
        "meta_mean_motion": 14.67533283,
        "meta_eccentricity": 0.0001162,
        "meta_inclination": 98.0694,
        "meta_ra_of_asc_node": 180.1621,
        "meta_arg_of_pericenter": 85.4071,
        "meta_mean_anomaly": 274.7266,
        "meta_ephemeris_type": 0,
        "meta_classification_type": "U",
        "meta_norad_cat_id": 63772,
        "meta_element_set_no": 999,
        "meta_rev_at_epoch": 3459,
        "meta_bstar": 0.000187,
        "meta_mean_motion_dot": 1.012e-05,
        "meta_mean_motion_ddot": 0,
        "tle_line1": "1 63772U 25090A   25355.27678617  .00001012  00000+0  18700-3 0  9997",
        "tle_line2": "2 63772  98.0694 180.1621 0001162  85.4071 274.7266 14.67533283 34594"
      },
      "geometry": {
        "type": "Point",
        "coordinates": [
          -159.519662701362,
          -67.13508118434366
        ]
      }
    }
  ]
}